[{"OBJECT_NAME":"JILIN-1 GAOFEN 03D16","OBJECT_ID":"2022-019L","EPOCH":"2026-03-05T02:26:58.174944","MEAN_MOTION":15.84135861,"ECCENTRICITY":0.00036401,"INCLINATION":97.3695,"RA_OF_ASC_NODE":158.3138,"ARG_OF_PERICENTER":189.1809,"MEAN_ANOMALY":170.9394,"EPHEMERIS_TYPE":0,"CLASSIFICATION_TYPE":"U","NORAD_CAT_ID":51834,"ELEMENT_SET_NO":999,"REV_AT_EPOCH":22384,"BSTAR":0.0012898635,"MEAN_MOTION_DOT":0.00298122,"MEAN_MOTION_DDOT":0},{"OBJECT_NAME":"JILIN-1 GAOFEN 03D11","OBJECT_ID":"2022-019M","EPOCH":"2026-03-04T05:13:09.022656","MEAN_MOTION":15.75108917,"ECCENTRICITY":0.00043336,"INCLINATION":97.3743,"RA_OF_ASC_NODE":156.0972,"ARG_OF_PERICENTER":177.6337,"MEAN_ANOMALY":182.4949,"EPHEMERIS_TYPE":0,"CLASSIFICATION_TYPE":"U","NORAD_CAT_ID":51835,"ELEMENT_SET_NO":999,"REV_AT_EPOCH":22360,"BSTAR":0.0013808702,"MEAN_MOTION_DOT":0.00210324,"MEAN_MOTION_DDOT":0},{"OBJECT_NAME":"JILIN-1 GAOFEN 03D15","OBJECT_ID":"2022-019R","EPOCH":"2026-03-05T18:55:22.234656","MEAN_MOTION":15.68110886,"ECCENTRICITY":0.0004078,"INCLINATION":97.3701,"RA_OF_ASC_NODE":155.8059,"ARG_OF_PERICENTER":179.5145,"MEAN_ANOMALY":180.6121,"EPHEMERIS_TYPE":0,"CLASSIFICATION_TYPE":"U","NORAD_CAT_ID":51839,"ELEMENT_SET_NO":999,"REV_AT_EPOCH":22375,"BSTAR":0.0010636,"MEAN_MOTION_DOT":0.00119537,"MEAN_MOTION_DDOT":0},{"OBJECT_NAME":"JILIN-1 GAOFEN 03D10","OBJECT_ID":"2022-019S","EPOCH":"2026-03-05T19:30:04.013280","MEAN_MOTION":15.75648131,"ECCENTRICITY":0.0002088,"INCLINATION":97.3691,"RA_OF_ASC_NODE":157.7926,"ARG_OF_PERICENTER":211.74,"MEAN_ANOMALY":148.374,"EPHEMERIS_TYPE":0,"CLASSIFICATION_TYPE":"U","NORAD_CAT_ID":51840,"ELEMENT_SET_NO":999,"REV_AT_EPOCH":22387,"BSTAR":0.0014887,"MEAN_MOTION_DOT":0.0023266,"MEAN_MOTION_DDOT":0},{"OBJECT_NAME":"JILIN-1 GAOFEN 03D12","OBJECT_ID":"2022-019T","EPOCH":"2026-03-05T18:53:39.665760","MEAN_MOTION":15.68430914,"ECCENTRICITY":0.0002727,"INCLINATION":97.3677,"RA_OF_ASC_NODE":155.7151,"ARG_OF_PERICENTER":156.1789,"MEAN_ANOMALY":203.9599,"EPHEMERIS_TYPE":0,"CLASSIFICATION_TYPE":"U","NORAD_CAT_ID":51841,"ELEMENT_SET_NO":999,"REV_AT_EPOCH":22375,"BSTAR":0.0010556,"MEAN_MOTION_DOT":0.00120178,"MEAN_MOTION_DDOT":0},{"OBJECT_NAME":"JILIN-1 GAOFEN 03D18","OBJECT_ID":"2022-019W","EPOCH":"2026-03-05T17:28:07.199904","MEAN_MOTION":15.75101552,"ECCENTRICITY":0.0005154,"INCLINATION":97.3686,"RA_OF_ASC_NODE":156.7823,"ARG_OF_PERICENTER":152.3056,"MEAN_ANOMALY":207.8484,"EPHEMERIS_TYPE":0,"CLASSIFICATION_TYPE":"U","NORAD_CAT_ID":51844,"ELEMENT_SET_NO":999,"REV_AT_EPOCH":22372,"BSTAR":0.001076,"MEAN_MOTION_DOT":0.00162938,"MEAN_MOTION_DDOT":0},{"OBJECT_NAME":"2022-023F","OBJECT_ID":"2022-023F","EPOCH":"2026-03-05T18:45:18.417888","MEAN_MOTION":15.18174168,"ECCENTRICITY":0.0118764,"INCLINATION":63.4548,"RA_OF_ASC_NODE":264.9606,"ARG_OF_PERICENTER":343.7411,"MEAN_ANOMALY":15.9903,"EPHEMERIS_TYPE":0,"CLASSIFICATION_TYPE":"U","NORAD_CAT_ID":51951,"ELEMENT_SET_NO":999,"REV_AT_EPOCH":22201,"BSTAR":0.00034323,"MEAN_MOTION_DOT":8.241e-5,"MEAN_MOTION_DDOT":0},{"OBJECT_NAME":"CZ-4C R/B","OBJECT_ID":"2022-027B","EPOCH":"2026-03-05T11:05:42.391680","MEAN_MOTION":13.6547199,"ECCENTRICITY":0.0223312,"INCLINATION":63.3962,"RA_OF_ASC_NODE":335.0475,"ARG_OF_PERICENTER":22.9817,"MEAN_ANOMALY":338.1024,"EPHEMERIS_TYPE":0,"CLASSIFICATION_TYPE":"U","NORAD_CAT_ID":52085,"ELEMENT_SET_NO":999,"REV_AT_EPOCH":19787,"BSTAR":6.1019e-5,"MEAN_MOTION_DOT":-3.6e-7,"MEAN_MOTION_DDOT":0},{"OBJECT_NAME":"MERIDIAN 10","OBJECT_ID":"2022-030A","EPOCH":"2026-03-04T19:01:50.061792","MEAN_MOTION":2.00610532,"ECCENTRICITY":0.675857,"INCLINATION":62.6644,"RA_OF_ASC_NODE":151.941,"ARG_OF_PERICENTER":272.9562,"MEAN_ANOMALY":17.8251,"EPHEMERIS_TYPE":0,"CLASSIFICATION_TYPE":"U","NORAD_CAT_ID":52145,"ELEMENT_SET_NO":999,"REV_AT_EPOCH":2893,"BSTAR":0,"MEAN_MOTION_DOT":2.57e-6,"MEAN_MOTION_DDOT":0},{"OBJECT_NAME":"OMNI-L1","OBJECT_ID":"2022-033A","EPOCH":"2026-03-05T17:05:41.435232","MEAN_MOTION":14.82307453,"ECCENTRICITY":0.0004038,"INCLINATION":97.8445,"RA_OF_ASC_NODE":145.9154,"ARG_OF_PERICENTER":256.5651,"MEAN_ANOMALY":103.5112,"EPHEMERIS_TYPE":0,"CLASSIFICATION_TYPE":"U","NORAD_CAT_ID":52157,"ELEMENT_SET_NO":999,"REV_AT_EPOCH":21212,"BSTAR":0.00043467,"MEAN_MOTION_DOT":3.423e-5,"MEAN_MOTION_DDOT":0},{"OBJECT_NAME":"ENMAP","OBJECT_ID":"2022-033C","EPOCH":"2026-03-05T17:04:01.985376","MEAN_MOTION":14.74962108,"ECCENTRICITY":0.0001025,"INCLINATION":97.9774,"RA_OF_ASC_NODE":148.4315,"ARG_OF_PERICENTER":89.6679,"MEAN_ANOMALY":270.4648,"EPHEMERIS_TYPE":0,"CLASSIFICATION_TYPE":"U","NORAD_CAT_ID":52159,"ELEMENT_SET_NO":999,"REV_AT_EPOCH":21140,"BSTAR":0.0001132,"MEAN_MOTION_DOT":7.11e-6,"MEAN_MOTION_DDOT":0},{"OBJECT_NAME":"ARCSAT-1","OBJECT_ID":"2022-033E","EPOCH":"2026-03-05T18:55:27.591456","MEAN_MOTION":15.50783124,"ECCENTRICITY":0.0004994,"INCLINATION":97.2741,"RA_OF_ASC_NODE":155.7534,"ARG_OF_PERICENTER":197.6822,"MEAN_ANOMALY":162.4257,"EPHEMERIS_TYPE":0,"CLASSIFICATION_TYPE":"U","NORAD_CAT_ID":52161,"ELEMENT_SET_NO":999,"REV_AT_EPOCH":21966,"BSTAR":0.00027473,"MEAN_MOTION_DOT":0.00015749,"MEAN_MOTION_DDOT":0},{"OBJECT_NAME":"GLOBAL-18","OBJECT_ID":"2022-034B","EPOCH":"2026-03-05T07:26:15.393696","MEAN_MOTION":15.41874169,"ECCENTRICITY":0.0002612,"INCLINATION":52.984,"RA_OF_ASC_NODE":31.5058,"ARG_OF_PERICENTER":313.6728,"MEAN_ANOMALY":46.4058,"EPHEMERIS_TYPE":0,"CLASSIFICATION_TYPE":"U","NORAD_CAT_ID":52196,"ELEMENT_SET_NO":999,"REV_AT_EPOCH":22091,"BSTAR":0.00067269,"MEAN_MOTION_DOT":0.00028698,"MEAN_MOTION_DDOT":0},{"OBJECT_NAME":"GAOFEN-3 03","OBJECT_ID":"2022-035A","EPOCH":"2026-03-05T18:53:22.644096","MEAN_MOTION":14.42226132,"ECCENTRICITY":0.0001432,"INCLINATION":98.4101,"RA_OF_ASC_NODE":74.85,"ARG_OF_PERICENTER":100.3374,"MEAN_ANOMALY":259.7978,"EPHEMERIS_TYPE":0,"CLASSIFICATION_TYPE":"U","NORAD_CAT_ID":52200,"ELEMENT_SET_NO":999,"REV_AT_EPOCH":20594,"BSTAR":-2.7815e-5,"MEAN_MOTION_DOT":-1.35e-6,"MEAN_MOTION_DDOT":0},{"OBJECT_NAME":"DAQI 1","OBJECT_ID":"2022-039A","EPOCH":"2026-03-05T18:24:38.664288","MEAN_MOTION":14.57651033,"ECCENTRICITY":0.0002837,"INCLINATION":98.1407,"RA_OF_ASC_NODE":5.8123,"ARG_OF_PERICENTER":194.1507,"MEAN_ANOMALY":165.9613,"EPHEMERIS_TYPE":0,"CLASSIFICATION_TYPE":"U","NORAD_CAT_ID":52257,"ELEMENT_SET_NO":999,"REV_AT_EPOCH":20687,"BSTAR":0.00012971,"MEAN_MOTION_DOT":5.46e-6,"MEAN_MOTION_DDOT":0},{"OBJECT_NAME":"JILIN-1 GAOFEN 3D05","OBJECT_ID":"2022-046C","EPOCH":"2026-03-05T14:46:55.547616","MEAN_MOTION":15.77669086,"ECCENTRICITY":0.0003234,"INCLINATION":97.4799,"RA_OF_ASC_NODE":178.6293,"ARG_OF_PERICENTER":237.823,"MEAN_ANOMALY":122.2722,"EPHEMERIS_TYPE":0,"CLASSIFICATION_TYPE":"U","NORAD_CAT_ID":52390,"ELEMENT_SET_NO":999,"REV_AT_EPOCH":21428,"BSTAR":0.0011643,"MEAN_MOTION_DOT":0.00197993,"MEAN_MOTION_DDOT":0},{"OBJECT_NAME":"BRO-6","OBJECT_ID":"2022-047AE","EPOCH":"2026-03-05T17:34:39.874944","MEAN_MOTION":15.4424295,"ECCENTRICITY":0.0005774,"INCLINATION":97.3428,"RA_OF_ASC_NODE":154.3003,"ARG_OF_PERICENTER":90.5183,"MEAN_ANOMALY":269.6727,"EPHEMERIS_TYPE":0,"CLASSIFICATION_TYPE":"U","NORAD_CAT_ID":52422,"ELEMENT_SET_NO":999,"REV_AT_EPOCH":21515,"BSTAR":0.0004537,"MEAN_MOTION_DOT":0.000208,"MEAN_MOTION_DDOT":0},{"OBJECT_NAME":"JILIN-1 GAOFEN 3D27","OBJECT_ID":"2022-048B","EPOCH":"2026-03-05T18:22:16.751424","MEAN_MOTION":15.5804824,"ECCENTRICITY":0.0004757,"INCLINATION":97.5642,"RA_OF_ASC_NODE":170.9413,"ARG_OF_PERICENTER":70.9498,"MEAN_ANOMALY":289.2272,"EPHEMERIS_TYPE":0,"CLASSIFICATION_TYPE":"U","NORAD_CAT_ID":52444,"ELEMENT_SET_NO":999,"REV_AT_EPOCH":21329,"BSTAR":0.00098964,"MEAN_MOTION_DOT":0.00074757,"MEAN_MOTION_DDOT":0},{"OBJECT_NAME":"JILIN-1 GAOFEN 3D28","OBJECT_ID":"2022-048C","EPOCH":"2026-03-05T18:18:32.595264","MEAN_MOTION":15.59288641,"ECCENTRICITY":0.0003498,"INCLINATION":97.5584,"RA_OF_ASC_NODE":170.8589,"ARG_OF_PERICENTER":97.3122,"MEAN_ANOMALY":262.8532,"EPHEMERIS_TYPE":0,"CLASSIFICATION_TYPE":"U","NORAD_CAT_ID":52445,"ELEMENT_SET_NO":999,"REV_AT_EPOCH":21332,"BSTAR":0.0009897,"MEAN_MOTION_DOT":0.00078346,"MEAN_MOTION_DDOT":0},{"OBJECT_NAME":"VIGORIDE-3","OBJECT_ID":"2022-057AE","EPOCH":"2026-03-05T06:23:03.252768","MEAN_MOTION":15.26015688,"ECCENTRICITY":0.0009658,"INCLINATION":97.6423,"RA_OF_ASC_NODE":201.6862,"ARG_OF_PERICENTER":125.6585,"MEAN_ANOMALY":234.5554,"EPHEMERIS_TYPE":0,"CLASSIFICATION_TYPE":"U","NORAD_CAT_ID":52760,"ELEMENT_SET_NO":999,"REV_AT_EPOCH":20930,"BSTAR":0.00037927,"MEAN_MOTION_DOT":9.696e-5,"MEAN_MOTION_DDOT":0},{"OBJECT_NAME":"ION SCV-006","OBJECT_ID":"2022-057AF","EPOCH":"2026-03-05T08:19:55.317792","MEAN_MOTION":15.42731793,"ECCENTRICITY":0.0019607,"INCLINATION":97.5936,"RA_OF_ASC_NODE":208.278,"ARG_OF_PERICENTER":128.8966,"MEAN_ANOMALY":231.4033,"EPHEMERIS_TYPE":0,"CLASSIFICATION_TYPE":"U","NORAD_CAT_ID":52761,"ELEMENT_SET_NO":999,"REV_AT_EPOCH":21009,"BSTAR":0.00042663,"MEAN_MOTION_DOT":0.00018693,"MEAN_MOTION_DDOT":0},{"OBJECT_NAME":"SHERPA-AC1","OBJECT_ID":"2022-057AH","EPOCH":"2026-03-05T15:28:50.884896","MEAN_MOTION":15.34573779,"ECCENTRICITY":0.0009125,"INCLINATION":97.6516,"RA_OF_ASC_NODE":209.7791,"ARG_OF_PERICENTER":100.8805,"MEAN_ANOMALY":259.3464,"EPHEMERIS_TYPE":0,"CLASSIFICATION_TYPE":"U","NORAD_CAT_ID":52763,"ELEMENT_SET_NO":999,"REV_AT_EPOCH":20981,"BSTAR":0.00035637,"MEAN_MOTION_DOT":0.00011874,"MEAN_MOTION_DDOT":0},{"OBJECT_NAME":"OMNI-L2","OBJECT_ID":"2022-057AR","EPOCH":"2026-03-05T16:45:39.093696","MEAN_MOTION":14.81057743,"ECCENTRICITY":0.0005389,"INCLINATION":97.482,"RA_OF_ASC_NODE":133.9824,"ARG_OF_PERICENTER":311.3776,"MEAN_ANOMALY":48.6973,"EPHEMERIS_TYPE":0,"CLASSIFICATION_TYPE":"U","NORAD_CAT_ID":52771,"ELEMENT_SET_NO":999,"REV_AT_EPOCH":20507,"BSTAR":0.00030632,"MEAN_MOTION_DOT":2.329e-5,"MEAN_MOTION_DDOT":0}]
